[{"OBJECT_NAME":"ONEWEB-0140","OBJECT_ID":"2020-100AE","EPOCH":"2025-08-28T21:42:50.780160","MEAN_MOTION":13.12442914,"ECCENTRICITY":0.00015848,"INCLINATION":87.8874,"RA_OF_ASC_NODE":48.7166,"ARG_OF_PERICENTER":90.9131,"MEAN_ANOMALY":269.2179,"EPHEMERIS_TYPE":0,"CLASSIFICATION_TYPE":"U","NORAD_CAT_ID":47286,"ELEMENT_SET_NO":999,"REV_AT_EPOCH":22635,"BSTAR":0.00057851463,"MEAN_MOTION_DOT":2.21e-6,"MEAN_MOTION_DDOT":0},{"OBJECT_NAME":"ONEWEB-0141","OBJECT_ID":"2020-100AF","EPOCH":"2025-08-28T20:58:14.950560","MEAN_MOTION":13.12441096,"ECCENTRICITY":0.00018754,"INCLINATION":87.8866,"RA_OF_ASC_NODE":48.7389,"ARG_OF_PERICENTER":100.8785,"MEAN_ANOMALY":259.2554,"EPHEMERIS_TYPE":0,"CLASSIFICATION_TYPE":"U","NORAD_CAT_ID":47287,"ELEMENT_SET_NO":999,"REV_AT_EPOCH":22633,"BSTAR":-0.00091191086,"MEAN_MOTION_DOT":-3.15e-6,"MEAN_MOTION_DDOT":0},{"OBJECT_NAME":"ONEWEB-0142","OBJECT_ID":"2020-100AG","EPOCH":"2025-08-28T22:32:04.034976","MEAN_MOTION":13.12443218,"ECCENTRICITY":0.00017112,"INCLINATION":87.8882,"RA_OF_ASC_NODE":48.74,"ARG_OF_PERICENTER":106.1871,"MEAN_ANOMALY":253.9446,"EPHEMERIS_TYPE":0,"CLASSIFICATION_TYPE":"U","NORAD_CAT_ID":47288,"ELEMENT_SET_NO":999,"REV_AT_EPOCH":22633,"BSTAR":-0.00010075865,"MEAN_MOTION_DOT":-2.4e-7,"MEAN_MOTION_DDOT":0},{"OBJECT_NAME":"ONEWEB-0143","OBJECT_ID":"2020-100AH","EPOCH":"2025-08-28T20:56:06.906624","MEAN_MOTION":13.12441027,"ECCENTRICITY":0.00017257,"INCLINATION":87.8881,"RA_OF_ASC_NODE":48.7506,"ARG_OF_PERICENTER":91.4605,"MEAN_ANOMALY":268.6722,"EPHEMERIS_TYPE":0,"CLASSIFICATION_TYPE":"U","NORAD_CAT_ID":47289,"ELEMENT_SET_NO":999,"REV_AT_EPOCH":22630,"BSTAR":-0.0009068435,"MEAN_MOTION_DOT":-3.13e-6,"MEAN_MOTION_DDOT":0},{"OBJECT_NAME":"ONEWEB-0144","OBJECT_ID":"2020-100AJ","EPOCH":"2025-08-28T22:06:12.558816","MEAN_MOTION":13.12441807,"ECCENTRICITY":0.00015508,"INCLINATION":87.887,"RA_OF_ASC_NODE":48.7174,"ARG_OF_PERICENTER":100.4285,"MEAN_ANOMALY":259.7019,"EPHEMERIS_TYPE":0,"CLASSIFICATION_TYPE":"U","NORAD_CAT_ID":47290,"ELEMENT_SET_NO":999,"REV_AT_EPOCH":22623,"BSTAR":0.0013012681,"MEAN_MOTION_DOT":4.81e-6,"MEAN_MOTION_DDOT":0},{"OBJECT_NAME":"ONEWEB-0145","OBJECT_ID":"2020-100AK","EPOCH":"2025-08-28T21:24:09.226944","MEAN_MOTION":13.1244308,"ECCENTRICITY":0.00016423,"INCLINATION":87.8879,"RA_OF_ASC_NODE":48.7532,"ARG_OF_PERICENTER":93.8506,"MEAN_ANOMALY":266.281,"EPHEMERIS_TYPE":0,"CLASSIFICATION_TYPE":"U","NORAD_CAT_ID":47291,"ELEMENT_SET_NO":999,"REV_AT_EPOCH":22642,"BSTAR":-0.00072647341,"MEAN_MOTION_DOT":-2.49e-6,"MEAN_MOTION_DDOT":0},{"OBJECT_NAME":"ONEWEB-0146","OBJECT_ID":"2020-100AL","EPOCH":"2025-08-28T21:19:28.814880","MEAN_MOTION":13.12442725,"ECCENTRICITY":0.00019554,"INCLINATION":87.8881,"RA_OF_ASC_NODE":48.7407,"ARG_OF_PERICENTER":84.0501,"MEAN_ANOMALY":276.085,"EPHEMERIS_TYPE":0,"CLASSIFICATION_TYPE":"U","NORAD_CAT_ID":47292,"ELEMENT_SET_NO":999,"REV_AT_EPOCH":22633,"BSTAR":-0.00094452328,"MEAN_MOTION_DOT":-3.27e-6,"MEAN_MOTION_DDOT":0},{"OBJECT_NAME":"ONEWEB-0147","OBJECT_ID":"2020-100AM","EPOCH":"2025-08-28T22:20:13.937568","MEAN_MOTION":13.12442677,"ECCENTRICITY":0.00014526,"INCLINATION":87.888,"RA_OF_ASC_NODE":48.7103,"ARG_OF_PERICENTER":87.3633,"MEAN_ANOMALY":272.7661,"EPHEMERIS_TYPE":0,"CLASSIFICATION_TYPE":"U","NORAD_CAT_ID":47293,"ELEMENT_SET_NO":999,"REV_AT_EPOCH":22623,"BSTAR":0.0006121731,"MEAN_MOTION_DOT":2.33e-6,"MEAN_MOTION_DDOT":0},{"OBJECT_NAME":"ONEWEB-0115","OBJECT_ID":"2021-025A","EPOCH":"2025-08-28T21:10:29.874144","MEAN_MOTION":13.1347095,"ECCENTRICITY":0.00017615,"INCLINATION":87.9009,"RA_OF_ASC_NODE":18.2775,"ARG_OF_PERICENTER":96.8368,"MEAN_ANOMALY":263.2962,"EPHEMERIS_TYPE":0,"CLASSIFICATION_TYPE":"U","NORAD_CAT_ID":48042,"ELEMENT_SET_NO":999,"REV_AT_EPOCH":21522,"BSTAR":-0.00063592966,"MEAN_MOTION_DOT":-2.19e-6,"MEAN_MOTION_DDOT":0},{"OBJECT_NAME":"ONEWEB-0152","OBJECT_ID":"2021-025B","EPOCH":"2025-08-28T21:29:59.645472","MEAN_MOTION":13.13469608,"ECCENTRICITY":0.0001752,"INCLINATION":87.9011,"RA_OF_ASC_NODE":18.289,"ARG_OF_PERICENTER":93.5976,"MEAN_ANOMALY":266.5353,"EPHEMERIS_TYPE":0,"CLASSIFICATION_TYPE":"U","NORAD_CAT_ID":48043,"ELEMENT_SET_NO":999,"REV_AT_EPOCH":21518,"BSTAR":0.00031186677,"MEAN_MOTION_DOT":1.27e-6,"MEAN_MOTION_DDOT":0},{"OBJECT_NAME":"ONEWEB-0153","OBJECT_ID":"2021-025C","EPOCH":"2025-08-28T20:58:18.102432","MEAN_MOTION":13.1346911,"ECCENTRICITY":0.00017576,"INCLINATION":87.9012,"RA_OF_ASC_NODE":18.2923,"ARG_OF_PERICENTER":98.916,"MEAN_ANOMALY":261.2169,"EPHEMERIS_TYPE":0,"CLASSIFICATION_TYPE":"U","NORAD_CAT_ID":48044,"ELEMENT_SET_NO":999,"REV_AT_EPOCH":21517,"BSTAR":-0.00089624741,"MEAN_MOTION_DOT":-3.15e-6,"MEAN_MOTION_DDOT":0},{"OBJECT_NAME":"ONEWEB-0154","OBJECT_ID":"2021-025D","EPOCH":"2025-08-28T20:53:25.761120","MEAN_MOTION":13.1347191,"ECCENTRICITY":0.00017223,"INCLINATION":87.901,"RA_OF_ASC_NODE":18.2908,"ARG_OF_PERICENTER":96.2539,"MEAN_ANOMALY":263.8786,"EPHEMERIS_TYPE":0,"CLASSIFICATION_TYPE":"U","NORAD_CAT_ID":48045,"ELEMENT_SET_NO":999,"REV_AT_EPOCH":21513,"BSTAR":-0.00079649061,"MEAN_MOTION_DOT":-2.78e-6,"MEAN_MOTION_DDOT":0},{"OBJECT_NAME":"ONEWEB-0116","OBJECT_ID":"2021-025E","EPOCH":"2025-08-28T21:49:30.480384","MEAN_MOTION":13.13470068,"ECCENTRICITY":0.00018011,"INCLINATION":87.9015,"RA_OF_ASC_NODE":18.2645,"ARG_OF_PERICENTER":92.4105,"MEAN_ANOMALY":267.723,"EPHEMERIS_TYPE":0,"CLASSIFICATION_TYPE":"U","NORAD_CAT_ID":48046,"ELEMENT_SET_NO":999,"REV_AT_EPOCH":21528,"BSTAR":0.00099860136,"MEAN_MOTION_DOT":3.77e-6,"MEAN_MOTION_DDOT":0},{"OBJECT_NAME":"ONEWEB-0150","OBJECT_ID":"2021-025F","EPOCH":"2025-08-28T21:15:21.519936","MEAN_MOTION":13.1346976,"ECCENTRICITY":0.00019035,"INCLINATION":87.9011,"RA_OF_ASC_NODE":18.2647,"ARG_OF_PERICENTER":102.2984,"MEAN_ANOMALY":257.8359,"EPHEMERIS_TYPE":0,"CLASSIFICATION_TYPE":"U","NORAD_CAT_ID":48047,"ELEMENT_SET_NO":999,"REV_AT_EPOCH":21517,"BSTAR":-0.00046491769,"MEAN_MOTION_DOT":-1.57e-6,"MEAN_MOTION_DDOT":0},{"OBJECT_NAME":"ONEWEB-0107","OBJECT_ID":"2021-025G","EPOCH":"2025-08-28T21:17:47.783904","MEAN_MOTION":13.1347023,"ECCENTRICITY":0.00015844,"INCLINATION":87.901,"RA_OF_ASC_NODE":18.2621,"ARG_OF_PERICENTER":107.3439,"MEAN_ANOMALY":252.7864,"EPHEMERIS_TYPE":0,"CLASSIFICATION_TYPE":"U","NORAD_CAT_ID":48048,"ELEMENT_SET_NO":999,"REV_AT_EPOCH":21515,"BSTAR":-0.0003109199,"MEAN_MOTION_DOT":-1.01e-6,"MEAN_MOTION_DDOT":0},{"OBJECT_NAME":"ONEWEB-0101","OBJECT_ID":"2021-025H","EPOCH":"2025-08-28T22:13:52.593024","MEAN_MOTION":13.13469436,"ECCENTRICITY":0.00015877,"INCLINATION":87.901,"RA_OF_ASC_NODE":18.2936,"ARG_OF_PERICENTER":98.4513,"MEAN_ANOMALY":261.6796,"EPHEMERIS_TYPE":0,"CLASSIFICATION_TYPE":"U","NORAD_CAT_ID":48049,"ELEMENT_SET_NO":999,"REV_AT_EPOCH":21513,"BSTAR":0.00026523336,"MEAN_MOTION_DOT":1.1e-6,"MEAN_MOTION_DDOT":0}]
