ONEWEB-0140             
1 47286U 20100AE  25240.90475440  .00000221  00000+0  57851-3 0  9999
2 47286  87.8874  48.7166 0001584  90.9131 269.2179 13.12442914226359
ONEWEB-0141             
1 47287U 20100AF  25240.87378415 -.00000315  00000+0 -91191-3 0  9991
2 47287  87.8866  48.7389 0001875 100.8785 259.2554 13.12441096226331
ONEWEB-0142             
1 47288U 20100AG  25240.93893559 -.00000024  00000+0 -10076-3 0  9990
2 47288  87.8882  48.7400 0001711 106.1871 253.9446 13.12443218226337
ONEWEB-0143             
1 47289U 20100AH  25240.87230216 -.00000313  00000+0 -90684-3 0  9993
2 47289  87.8881  48.7506 0001725  91.4605 268.6722 13.12441027226303
ONEWEB-0144             
1 47290U 20100AJ  25240.92097869  .00000481  00000+0  13013-2 0  9990
2 47290  87.8870  48.7174 0001550 100.4285 259.7019 13.12441807226233
ONEWEB-0145             
1 47291U 20100AK  25240.89177346 -.00000249  00000+0 -72647-3 0  9999
2 47291  87.8879  48.7532 0001642  93.8506 266.2810 13.12443080226422
ONEWEB-0146             
1 47292U 20100AL  25240.88852795 -.00000327  00000+0 -94452-3 0  9992
2 47292  87.8881  48.7407 0001955  84.0501 276.0850 13.12442725226339
ONEWEB-0147             
1 47293U 20100AM  25240.93071687  .00000233  00000+0  61217-3 0  9999
2 47293  87.8880  48.7103 0001452  87.3633 272.7661 13.12442677226234
ONEWEB-0115             
1 48042U 21025A   25240.88229021 -.00000219  00000+0 -63593-3 0  9995
2 48042  87.9009  18.2775 0001761  96.8368 263.2962 13.13470950215223
ONEWEB-0152             
1 48043U 21025B   25240.89582923  .00000127  00000+0  31187-3 0  9990
2 48043  87.9011  18.2890 0001752  93.5976 266.5353 13.13469608215187
ONEWEB-0153             
1 48044U 21025C   25240.87382063 -.00000315  00000+0 -89625-3 0  9993
2 48044  87.9012  18.2923 0001757  98.9160 261.2169 13.13469110215179
ONEWEB-0154             
1 48045U 21025D   25240.87043705 -.00000278  00000+0 -79649-3 0  9994
2 48045  87.9010  18.2908 0001722  96.2539 263.8786 13.13471910215134
ONEWEB-0116             
1 48046U 21025E   25240.90938056  .00000377  00000+0  99860-3 0  9996
2 48046  87.9015  18.2645 0001801  92.4105 267.7230 13.13470068215289
ONEWEB-0150             
1 48047U 21025F   25240.88566574 -.00000157  00000+0 -46492-3 0  9997
2 48047  87.9011  18.2647 0001903 102.2984 257.8359 13.13469760215173
ONEWEB-0107             
1 48048U 21025G   25240.88735861 -.00000101  00000+0 -31092-3 0  9994
2 48048  87.9010  18.2621 0001584 107.3439 252.7864 13.13470230215158
ONEWEB-0101             
1 48049U 21025H   25240.92630316  .00000110  00000+0  26523-3 0  9990
2 48049  87.9010  18.2936 0001587  98.4513 261.6796 13.13469436215131
